INMARSAT GX5            
1 44801U 19080B   26165.19187331  .00000083  00000+0  00000+0 0  9997
2 44801   0.0459  28.9301 0002163  51.9124 261.7605  1.00271822  6752
JCSAT-18 (KACIFIC 1)    
1 44868U 19091A   26164.72032846 -.00000191  00000+0  00000+0 0  9991
2 44868   0.0164 285.1413 0000454 329.8795  56.3280  1.00268168 23970
ELEKTRO-L 3             
1 44903U 19095A   26165.06213457 -.00000087  00000+0  00000+0 0  9996
2 44903   0.2477  81.5537 0001000 355.0058 284.1320  1.00271553 23670
SHIJIAN-20 (SJ-20)      
1 44910U 19097A   26164.92860653  .00000141  00000+0  00000+0 0  9996
2 44910   4.9104  75.1016 0013864  54.8913 151.4095  1.00276968 23661
TJS-5                   
1 44978U 20002A   26164.99711370 -.00000332  00000+0  00000+0 0  9999
2 44978   0.0199 295.8328 0007371 110.9893 321.9546  1.00270349 23673
GSAT-30                 
1 45026U 20005A   26165.06352124 -.00000155  00000+0  00000+0 0  9997
2 45026   0.0658  98.8159 0003338 345.5939 283.8147  1.00271417 23475
EUTELSAT KONNECT        
1 45027U 20005B   26163.69395206  .00000065  00000+0  00000+0 0  9992
2 45027   0.0723  99.8531 0001648 128.9449 289.2912  1.00275963 24296
JCSAT-17                
1 45245U 20013A   26164.93143235 -.00000309  00000+0  00000+0 0  9996
2 45245   5.3925 356.8380 0002346  84.0311 292.7088  1.00271388 23204
GEO-KOMPSAT-2B          
1 45246U 20013B   26164.97892156 -.00000334  00000+0  00000+0 0  9992
2 45246   0.0140 266.6025 0000762   4.6798 111.6813  1.00272267 23243
BEIDOU-3 G2             
1 45344U 20017A   26165.06291456 -.00000134  00000+0  00000+0 0  9990
2 45344   2.8566  47.2893 0002106  32.6583 285.1446  1.00272388 23228
AEHF-6 (USA 298)        
1 45465U 20022B   26165.00318038 -.00000287  00000+0  00000+0 0  9999
2 45465   2.5554 301.1072 0043195  17.0229  83.0968  1.00272511 22988
BEIDOU-3 G3             
1 45807U 20040A   26165.06898126 -.00000346  00000+0  00000+0 0  9992
2 45807   2.4382  67.4396 0002445 336.1912 354.1234  1.00268206 22034
APSTAR-6D               
1 45863U 20045A   26165.21622677 -.00000309  00000+0  00000+0 0  9991
2 45863   0.0513 105.3917 0002116 342.0945  26.9093  1.00270452 21834
KOREASAT 116            
1 45920U 20048A   26165.09280887 -.00000353  00000+0  00000+0 0  9996
2 45920   0.0155 358.5324 0000698  87.4720 326.0199  1.00269470 21602
EXPRESS 103             
1 45985U 20053A   26165.10947455 -.00000271  00000+0  00000+0 0  9995
2 45985   0.0156 279.1094 0000304  72.3928  46.8258  1.00269715 21619
EXPRESS 80              
1 45986U 20053B   26164.05180193 -.00000123  00000+0  00000+0 0  9993
2 45986   0.0184 309.1153 0001896 206.3533 204.5485  1.00275227 21596
BSAT-4B                 
1 46112U 20056A   26164.49851758  .00000000  00000+0  00000+0 0  9991
2 46112   0.0192  98.5475 0003746  17.2668  75.2961  1.00268721 21354
MEV-2                   
1 46113U 20056B   26165.18944663 -.00000003  00000+0  00000+0 0  9991
2 46113   0.0133 328.7641 0000264 276.6580  84.2589  1.00267355 80521
GALAXY 30 (G-30)        
1 46114U 20056C   26165.15044597  .00000046  00000+0  00000+0 0  9992
2 46114   0.0179   5.4372 0002064  83.1864 102.9907  1.00270364 21260
GAOFEN-13 01            
1 46610U 20071A   26165.21302009 -.00000354  00000+0  00000+0 0  9995
2 46610   0.5136  84.8830 0041392 123.6786 248.8596  1.00272040 20894
TIANTONG-1 2            
1 46916U 20082A   26165.21440676 -.00000347  00000+0  00000+0 0  9991
2 46916   0.7944 327.0606 0000948  99.1829  38.4047  1.00270790 20627
LUCAS (JDRS-1)          
1 47202U 20089A   26165.06508125 -.00000226  00000+0  00000+0 0  9990
2 47202   0.0160 317.0822 0002048 115.5270 303.9965  1.00271122 20386
SXM-7                   
1 47240U 20096A   26164.88760874 -.00000195  00000+0  00000+0 0  9995
2 47240   0.0364 109.9140 0003723  14.9102  11.7589  1.00269777  7410
CMS-01                  
1 47256U 20099A   26165.06352124 -.00000155  00000+0  00000+0 0  9997
2 47256   0.0904  96.0656 0003785 180.3902  91.7752  1.00271044 20166
TURKSAT 5A              
1 47306U 21001A   26164.91770071  .00000164  00000+0  00000+0 0  9994
2 47306   0.0148  47.1681 0000158 239.4684 336.9003  1.00271149 19933
TIANTONG-1 3            
1 47321U 21003A   26165.06326124 -.00000145  00000+0  00000+0 0  9996
2 47321   1.7590 339.0851 0003102 110.8802 276.7249  1.00270987 19939
TJS-6                   
1 47613U 21010A   26165.15375439  .00000052  00000+0  00000+0 0  9997
2 47613   0.2595 264.3537 0002984 223.9320   8.0362  1.00268629 19775
SBIRS GEO-5 (USA 315)   
1 48618U 21042A   26165.12108399 -.00000259  00000+0  00000+0 0  9994
2 48618   5.1077 329.1033 0001292 124.2459 306.4785  1.00270469 18743
FENGYUN 4B              
1 48808U 21047A   26165.10947455 -.00000321  00000+0  00000+0 0  9992
2 48808   0.1453  77.1433 0005890 275.3382  53.9044  1.00278014 18535
SXM-8                   
1 48838U 21049A   26164.88760874 -.00000195  00000+0  00000+0 0  9998
2 48838   0.0191  15.2574 0004965  15.6764 105.6543  1.00269823 18555
TIANLIAN 1-05           
1 49011U 21063A   26165.19300000  .00000115  00000+0  00000+0 0  9995
2 49011   1.5860  80.7279 0000577 314.3294 313.7248  1.00270933 18041
STAR ONE D2             
1 49055U 21069A   26165.19558542  .00000000  00000+0  00000+0 0  9998
2 49055   0.0148 342.3099 0002048 128.6930 151.8001  1.00269750 17915
